FENGYUN 1C DEB          
1 30538U 99025AKC 17345.82585222  .00030945  00000-0  50896-3 0  9990
2 30538  99.1311 261.0405 0080737 315.1415  44.3322 15.48625574589229
